{
  "type": "FeatureCollection",
  "features": [
    {
      "type": "Feature",
      "properties": {
        "norad_id": 35744,
        "name": "IRIDIUM 33 DEB",
        "group": "iridium-33-debris",
        "lat": -40.15039836099816,
        "lon": 152.1226682936394,
        "alt_km": 651.54428937175,
        "timestamp": "2025-12-04T19:33:59.985409+00:00",
        "meta_object_name": "IRIDIUM 33 DEB",
        "meta_object_id": "1997-051RX",
        "meta_epoch": "2025-12-03T16:26:33.199008",
        "meta_mean_motion": 14.70784036,
        "meta_eccentricity": 0.00192992,
        "meta_inclination": 86.3279,
        "meta_ra_of_asc_node": 329.5276,
        "meta_arg_of_pericenter": 226.2399,
        "meta_mean_anomaly": 133.722,
        "meta_ephemeris_type": 0,
        "meta_classification_type": "U",
        "meta_norad_cat_id": 35744,
        "meta_element_set_no": 999,
        "meta_rev_at_epoch": 87198,
        "meta_bstar": 0.0017711667,
        "meta_mean_motion_dot": 0.0001087,
        "meta_mean_motion_ddot": 0,
        "tle_line1": "1 35744U 97051RX  25337.68510647  .00010870  00000+0  17712-2 0  9997",
        "tle_line2": "2 35744  86.3279 329.5276 0019299 226.2399 133.7220 14.70784036871988"
      },
      "geometry": {
        "type": "Point",
        "coordinates": [
          152.1226682936394,
          -40.15039836099816
        ]
      }
    },
    {
      "type": "Feature",
      "properties": {
        "norad_id": 35797,
        "name": "IRIDIUM 33 DEB",
        "group": "iridium-33-debris",
        "lat": -24.679739188697642,
        "lon": -28.073833766383117,
        "alt_km": 635.1595461195911,
        "timestamp": "2025-12-04T19:33:59.985418+00:00",
        "meta_object_name": "IRIDIUM 33 DEB",
        "meta_object_id": "1997-051SF",
        "meta_epoch": "2025-12-04T06:43:04.165248",
        "meta_mean_motion": 14.82394656,
        "meta_eccentricity": 0.00119011,
        "meta_inclination": 86.3354,
        "meta_ra_of_asc_node": 333.8596,
        "meta_arg_of_pericenter": 177.769,
        "meta_mean_anomaly": 182.3588,
        "meta_ephemeris_type": 0,
        "meta_classification_type": "U",
        "meta_norad_cat_id": 35797,
        "meta_element_set_no": 999,
        "meta_rev_at_epoch": 87215,
        "meta_bstar": 0.0041875911,
        "meta_mean_motion_dot": 0.0003372,
        "meta_mean_motion_ddot": 0,
        "tle_line1": "1 35797U 97051SF  25338.27990932  .00033720  00000+0  41876-2 0  9997",
        "tle_line2": "2 35797  86.3354 333.8596 0011901 177.7690 182.3588 14.82394656872154"
      },
      "geometry": {
        "type": "Point",
        "coordinates": [
          -28.073833766383117,
          -24.679739188697642
        ]
      }
    },
    {
      "type": "Feature",
      "properties": {
        "norad_id": 35806,
        "name": "IRIDIUM 33 DEB",
        "group": "iridium-33-debris",
        "lat": -77.39658779129232,
        "lon": 7.505956090793489,
        "alt_km": 720.8894019154159,
        "timestamp": "2025-12-04T19:33:59.985435+00:00",
        "meta_object_name": "IRIDIUM 33 DEB",
        "meta_object_id": "1997-051SQ",
        "meta_epoch": "2025-11-25T10:07:59.442528",
        "meta_mean_motion": 14.57094096,
        "meta_eccentricity": 0.00160119,
        "meta_inclination": 86.3447,
        "meta_ra_of_asc_node": 28.2517,
        "meta_arg_of_pericenter": 127.3702,
        "meta_mean_anomaly": 232.8968,
        "meta_ephemeris_type": 0,
        "meta_classification_type": "U",
        "meta_norad_cat_id": 35806,
        "meta_element_set_no": 999,
        "meta_rev_at_epoch": 86072,
        "meta_bstar": 0.0013723927,
        "meta_mean_motion_dot": 6.213e-05,
        "meta_mean_motion_ddot": 0,
        "tle_line1": "1 35806U 97051SQ  25329.42221577  .00006213  00000+0  13724-2 0  9995",
        "tle_line2": "2 35806  86.3447  28.2517 0016011 127.3702 232.8968 14.57094096860728"
      },
      "geometry": {
        "type": "Point",
        "coordinates": [
          7.505956090793489,
          -77.39658779129232
        ]
      }
    },
    {
      "type": "Feature",
      "properties": {
        "norad_id": 35809,
        "name": "IRIDIUM 33 DEB",
        "group": "iridium-33-debris",
        "lat": 54.20756301154523,
        "lon": 153.84802138233312,
        "alt_km": 645.2393765613151,
        "timestamp": "2025-12-04T19:33:59.985445+00:00",
        "meta_object_name": "IRIDIUM 33 DEB",
        "meta_object_id": "1997-051ST",
        "meta_epoch": "2025-12-01T17:44:51.390816",
        "meta_mean_motion": 14.75313912,
        "meta_eccentricity": 0.00099663,
        "meta_inclination": 86.3281,
        "meta_ra_of_asc_node": 340.3571,
        "meta_arg_of_pericenter": 290.7283,
        "meta_mean_anomaly": 69.2867,
        "meta_ephemeris_type": 0,
        "meta_classification_type": "U",
        "meta_norad_cat_id": 35809,
        "meta_element_set_no": 999,
        "meta_rev_at_epoch": 86645,
        "meta_bstar": 0.0015973304,
        "meta_mean_motion_dot": 0.00010859,
        "meta_mean_motion_ddot": 0,
        "tle_line1": "1 35809U 97051ST  25335.73948369  .00010859  00000+0  15973-2 0  9993",
        "tle_line2": "2 35809  86.3281 340.3571 0009966 290.7283  69.2867 14.75313912866452"
      },
      "geometry": {
        "type": "Point",
        "coordinates": [
          153.84802138233312,
          54.20756301154523
        ]
      }
    },
    {
      "type": "Feature",
      "properties": {
        "norad_id": 35846,
        "name": "IRIDIUM 33 DEB",
        "group": "iridium-33-debris",
        "lat": 67.87222392772658,
        "lon": -126.74941024896128,
        "alt_km": 741.1658140804357,
        "timestamp": "2025-12-04T19:33:59.985454+00:00",
        "meta_object_name": "IRIDIUM 33 DEB",
        "meta_object_id": "1997-051SW",
        "meta_epoch": "2025-11-15T14:04:07.017312",
        "meta_mean_motion": 14.42992821,
        "meta_eccentricity": 0.00163082,
        "meta_inclination": 86.3745,
        "meta_ra_of_asc_node": 70.4244,
        "meta_arg_of_pericenter": 263.1259,
        "meta_mean_anomaly": 96.8086,
        "meta_ephemeris_type": 0,
        "meta_classification_type": "U",
        "meta_norad_cat_id": 35846,
        "meta_element_set_no": 999,
        "meta_rev_at_epoch": 70937,
        "meta_bstar": 0.0011049939,
        "meta_mean_motion_dot": 3.722e-05,
        "meta_mean_motion_ddot": 0,
        "tle_line1": "1 35846U 97051SW  25319.58619233  .00003722  00000+0  11050-2 0  9997",
        "tle_line2": "2 35846  86.3745  70.4244 0016308 263.1259  96.8086 14.42992821709373"
      },
      "geometry": {
        "type": "Point",
        "coordinates": [
          -126.74941024896128,
          67.87222392772658
        ]
      }
    },
    {
      "type": "Feature",
      "properties": {
        "norad_id": 35848,
        "name": "IRIDIUM 33 DEB",
        "group": "iridium-33-debris",
        "lat": -5.396803275941678,
        "lon": 19.347978385650084,
        "alt_km": 641.1123075718506,
        "timestamp": "2025-12-04T19:33:59.985463+00:00",
        "meta_object_name": "IRIDIUM 33 DEB",
        "meta_object_id": "1997-051SY",
        "meta_epoch": "2025-12-01T10:21:45.439488",
        "meta_mean_motion": 14.7824162,
        "meta_eccentricity": 0.00067103,
        "meta_inclination": 86.3925,
        "meta_ra_of_asc_node": 21.2088,
        "meta_arg_of_pericenter": 240.9704,
        "meta_mean_anomaly": 119.0844,
        "meta_ephemeris_type": 0,
        "meta_classification_type": "U",
        "meta_norad_cat_id": 35848,
        "meta_element_set_no": 999,
        "meta_rev_at_epoch": 66523,
        "meta_bstar": 0.0018930249,
        "meta_mean_motion_dot": 0.00013775,
        "meta_mean_motion_ddot": 0,
        "tle_line1": "1 35848U 97051SY  25335.43177592  .00013775  00000+0  18930-2 0  9991",
        "tle_line2": "2 35848  86.3925  21.2088 0006710 240.9704 119.0844 14.78241620665238"
      },
      "geometry": {
        "type": "Point",
        "coordinates": [
          19.347978385650084,
          -5.396803275941678
        ]
      }
    },
    {
      "type": "Feature",
      "properties": {
        "norad_id": 35850,
        "name": "IRIDIUM 33 DEB",
        "group": "iridium-33-debris",
        "lat": -45.132008056095856,
        "lon": -15.825307725327274,
        "alt_km": 641.4742104172237,
        "timestamp": "2025-12-04T19:33:59.985472+00:00",
        "meta_object_name": "IRIDIUM 33 DEB",
        "meta_object_id": "1997-051TA",
        "meta_epoch": "2025-12-02T07:40:10.229376",
        "meta_mean_motion": 14.7843662,
        "meta_eccentricity": 0.0007989,
        "meta_inclination": 86.3497,
        "meta_ra_of_asc_node": 348.9861,
        "meta_arg_of_pericenter": 227.4621,
        "meta_mean_anomaly": 132.5925,
        "meta_ephemeris_type": 0,
        "meta_classification_type": "U",
        "meta_norad_cat_id": 35850,
        "meta_element_set_no": 999,
        "meta_rev_at_epoch": 71203,
        "meta_bstar": 0.0019125,
        "meta_mean_motion_dot": 0.00013983,
        "meta_mean_motion_ddot": 0,
        "tle_line1": "1 35850U 97051TA  25336.31956284  .00013983  00000+0  19125-2 0  9993",
        "tle_line2": "2 35850  86.3497 348.9861 0007989 227.4621 132.5925 14.78436620712037"
      },
      "geometry": {
        "type": "Point",
        "coordinates": [
          -15.825307725327274,
          -45.132008056095856
        ]
      }
    }
  ]
}